start=new Date('2022-09-01T00:00:00.000Z').valueOf();
sats=[{"TIME_SYSTEM":"UTC","PERIAPSIS":"546.260","OBJECT_NAME":"STARLINK-2617","DECAY_DATE":null,"COUNTRY_CODE":"US","MEAN_MOTION_DOT":"-0.00007355","SITE":"AFETR","CLASSIFICATION_TYPE":"U","REV_AT_EPOCH":"7047","ELEMENT_SET_NO":"999","ECCENTRICITY":"0.00012700","MEAN_ANOMALY":"286.8303","OBJECT_ID":"2021-044BD","ARG_OF_PERICENTER":"73.2825","OBJECT_TYPE":"PAYLOAD","PERIOD":"95.591","APOAPSIS":"548.019","SEMIMAJOR_AXIS":"6925.274","FILE":"3552511","RA_OF_ASC_NODE":"87.6569","MEAN_ELEMENT_THEORY":"SGP4","GP_ID":"211393026","CENTER_NAME":"EARTH","NORAD_CAT_ID":"48689","MEAN_MOTION":"15.06424240","TLE_LINE1":"1 48689U 21044BD  22243.02600066 -.00007355  00000-0 -47506-3 0  9996","RCS_SIZE":"LARGE","EPHEMERIS_TYPE":"0","EPOCH":"2022-08-31T00:37:26.457024","REF_FRAME":"TEME","MEAN_MOTION_DDOT":"0.0000000000000","BSTAR":"-0.00047506000000","LAUNCH_DATE":"2021-05-26","INCLINATION":"53.0548","TLE_LINE2":"2 48689  53.0548  87.6569 0001270  73.2825 286.8303 15.06424240 70476"},{"SITE":"AFETR","CLASSIFICATION_TYPE":"U","MEAN_ANOMALY":"270.5309","ELEMENT_SET_NO":"999","REV_AT_EPOCH":"7042","ECCENTRICITY":"0.00014410","OBJECT_NAME":"STARLINK-2740","PERIAPSIS":"546.237","DECAY_DATE":null,"TIME_SYSTEM":"UTC","COUNTRY_CODE":"US","MEAN_MOTION_DOT":"0.00002690","APOAPSIS":"548.233","SEMIMAJOR_AXIS":"6925.370","ARG_OF_PERICENTER":"89.5845","OBJECT_ID":"2021-044BE","PERIOD":"95.593","OBJECT_TYPE":"PAYLOAD","GP_ID":"211423745","MEAN_ELEMENT_THEORY":"SGP4","FILE":"3552761","RA_OF_ASC_NODE":"94.9756","BSTAR":"0.00019945000000","TLE_LINE2":"2 48690  53.0547  94.9756 0001441  89.5845 270.5309 15.06393046 70428","LAUNCH_DATE":"2021-05-26","INCLINATION":"53.0547","MEAN_MOTION":"15.06393046","NORAD_CAT_ID":"48690","CENTER_NAME":"EARTH","REF_FRAME":"TEME","MEAN_MOTION_DDOT":"0.0000000000000","TLE_LINE1":"1 48690U 21044BE  22243.62958728  .00002690  00000-0  19945-3 0  9996","EPOCH":"2022-08-31T15:06:36.340992","RCS_SIZE":"LARGE","EPHEMERIS_TYPE":"0"},{"REV_AT_EPOCH":"7050","ECCENTRICITY":"0.00014630","ELEMENT_SET_NO":"999","MEAN_ANOMALY":"277.3531","SITE":"AFETR","CLASSIFICATION_TYPE":"U","MEAN_MOTION_DOT":"0.00000911","COUNTRY_CODE":"US","TIME_SYSTEM":"UTC","DECAY_DATE":null,"OBJECT_NAME":"STARLINK-2750","PERIAPSIS":"546.195","SEMIMAJOR_AXIS":"6925.343","APOAPSIS":"548.221","PERIOD":"95.592","OBJECT_TYPE":"PAYLOAD","OBJECT_ID":"2021-044BF","ARG_OF_PERICENTER":"82.7624","MEAN_ELEMENT_THEORY":"SGP4","GP_ID":"211424497","RA_OF_ASC_NODE":"89.8013","FILE":"3552761","INCLINATION":"53.0547","LAUNCH_DATE":"2021-05-26","TLE_LINE2":"2 48691  53.0547  89.8013 0001463  82.7624 277.3531 15.06401865 70502","BSTAR":"0.00008006300000","EPOCH":"2022-08-31T16:02:59.587872","RCS_SIZE":"LARGE","EPHEMERIS_TYPE":"0","TLE_LINE1":"1 48691U 21044BF  22243.66874523  .00000911  00000-0  80063-4 0  9995","MEAN_MOTION_DDOT":"0.0000000000000","REF_FRAME":"TEME","NORAD_CAT_ID":"48691","CENTER_NAME":"EARTH","MEAN_MOTION":"15.06401865"},{"RA_OF_ASC_NODE":"90.2814","FILE":"3552761","MEAN_ELEMENT_THEORY":"SGP4","GP_ID":"211424248","TLE_LINE1":"1 48692U 21044BG  22243.58766844 -.00000143  00000-0  92785-5 0  9996","EPOCH":"2022-08-31T14:06:14.553216","RCS_SIZE":"LARGE","EPHEMERIS_TYPE":"0","MEAN_MOTION_DDOT":"0.0000000000000","REF_FRAME":"TEME","CENTER_NAME":"EARTH","NORAD_CAT_ID":"48692","MEAN_MOTION":"15.06400947","INCLINATION":"53.0555","LAUNCH_DATE":"2021-05-26","TLE_LINE2":"2 48692  53.0555  90.2814 0001670  88.6015 271.5165 15.06400947 70493","BSTAR":"0.00000927850000","COUNTRY_CODE":"US","MEAN_MOTION_DOT":"-0.00000143","TIME_SYSTEM":"UTC","PERIAPSIS":"546.054","OBJECT_NAME":"STARLINK-2752","DECAY_DATE":null,"REV_AT_EPOCH":"7049","ELEMENT_SET_NO":"999","ECCENTRICITY":"0.00016700","MEAN_ANOMALY":"271.5165","SITE":"AFETR","CLASSIFICATION_TYPE":"U","OBJECT_TYPE":"PAYLOAD","PERIOD":"95.592","OBJECT_ID":"2021-044BG","ARG_OF_PERICENTER":"88.6015","SEMIMAJOR_AXIS":"6925.346","APOAPSIS":"548.367"},{"TIME_SYSTEM":"UTC","DECAY_DATE":null,"OBJECT_NAME":"STARLINK-2618","PERIAPSIS":"546.167","MEAN_MOTION_DOT":"0.00001373","COUNTRY_CODE":"US","CLASSIFICATION_TYPE":"U","SITE":"AFETR","ELEMENT_SET_NO":"999","ECCENTRICITY":"0.00015320","REV_AT_EPOCH":"7033","MEAN_ANOMALY":"269.2751","ARG_OF_PERICENTER":"90.8414","OBJECT_ID":"2021-044BH","OBJECT_TYPE":"PAYLOAD","PERIOD":"95.592","APOAPSIS":"548.289","SEMIMAJOR_AXIS":"6925.363","FILE":"3552511","RA_OF_ASC_NODE":"97.8020","MEAN_ELEMENT_THEORY":"SGP4","GP_ID":"211393527","CENTER_NAME":"EARTH","NORAD_CAT_ID":"48693","MEAN_MOTION":"15.06395293","RCS_SIZE":"LARGE","EPOCH":"2022-08-30T23:57:38.211552","EPHEMERIS_TYPE":"0","TLE_LINE1":"1 48693U 21044BH  22242.99835893  .00001373  00000-0  11110-3 0  9998","REF_FRAME":"TEME","MEAN_MOTION_DDOT":"0.0000000000000","BSTAR":"0.00011110000000","INCLINATION":"53.0546","LAUNCH_DATE":"2021-05-26","TLE_LINE2":"2 48693  53.0546  97.8020 0001532  90.8414 269.2751 15.06395293 70336"},{"ARG_OF_PERICENTER":"72.5255","OBJECT_ID":"2021-044BJ","PERIOD":"95.593","OBJECT_TYPE":"PAYLOAD","APOAPSIS":"548.294","SEMIMAJOR_AXIS":"6925.391","TIME_SYSTEM":"UTC","PERIAPSIS":"546.218","OBJECT_NAME":"STARLINK-2748","DECAY_DATE":null,"COUNTRY_CODE":"US","MEAN_MOTION_DOT":"0.00000067","SITE":"AFETR","CLASSIFICATION_TYPE":"U","ELEMENT_SET_NO":"999","ECCENTRICITY":"0.00014990","REV_AT_EPOCH":"7035","MEAN_ANOMALY":"287.5898","CENTER_NAME":"EARTH","NORAD_CAT_ID":"48694","MEAN_MOTION":"15.06386073","TLE_LINE1":"1 48694U 21044BJ  22243.63002673  .00000067  00000-0  23414-4 0  9993","EPOCH":"2022-08-31T15:07:14.309472","RCS_SIZE":"LARGE","EPHEMERIS_TYPE":"0","MEAN_MOTION_DDOT":"0.0000000000000","REF_FRAME":"TEME","BSTAR":"0.00002341400000","INCLINATION":"53.0559","LAUNCH_DATE":"2021-05-26","TLE_LINE2":"2 48694  53.0559  99.9685 0001499  72.5255 287.5898 15.06386073 70356","FILE":"3552761","RA_OF_ASC_NODE":"99.9685","MEAN_ELEMENT_THEORY":"SGP4","GP_ID":"211423246"},{"MEAN_MOTION":"15.06399539","NORAD_CAT_ID":"48695","CENTER_NAME":"EARTH","MEAN_MOTION_DDOT":"0.0000000000000","REF_FRAME":"TEME","RCS_SIZE":"LARGE","EPHEMERIS_TYPE":"0","EPOCH":"2022-08-30T23:45:02.591712","TLE_LINE1":"1 48695U 21044BK  22242.98961333  .00001851  00000-0  14315-3 0  9999","BSTAR":"0.00014315000000","TLE_LINE2":"2 48695  53.0536 102.8953 0001458  79.3422 280.7731 15.06399539 70262","LAUNCH_DATE":"2021-05-26","INCLINATION":"53.0536","FILE":"3552511","RA_OF_ASC_NODE":"102.8953","GP_ID":"211392025","MEAN_ELEMENT_THEORY":"SGP4","ARG_OF_PERICENTER":"79.3422","OBJECT_ID":"2021-044BK","OBJECT_TYPE":"PAYLOAD","PERIOD":"95.592","APOAPSIS":"548.225","SEMIMAJOR_AXIS":"6925.350","DECAY_DATE":null,"OBJECT_NAME":"STARLINK-2616","PERIAPSIS":"546.205","TIME_SYSTEM":"UTC","MEAN_MOTION_DOT":"0.00001851","COUNTRY_CODE":"US","SITE":"AFETR","CLASSIFICATION_TYPE":"U","MEAN_ANOMALY":"280.7731","ECCENTRICITY":"0.00014580","ELEMENT_SET_NO":"999","REV_AT_EPOCH":"7026"},{"MEAN_ANOMALY":"286.6877","ECCENTRICITY":"0.00010390","ELEMENT_SET_NO":"999","REV_AT_EPOCH":"7030","CLASSIFICATION_TYPE":"U","SITE":"AFETR","COUNTRY_CODE":"US","MEAN_MOTION_DOT":"0.00001343","OBJECT_NAME":"STARLINK-2753","PERIAPSIS":"546.538","DECAY_DATE":null,"TIME_SYSTEM":"UTC","SEMIMAJOR_AXIS":"6925.392","APOAPSIS":"547.977","PERIOD":"95.593","OBJECT_TYPE":"PAYLOAD","OBJECT_ID":"2021-044BL","ARG_OF_PERICENTER":"73.4226","GP_ID":"211424748","MEAN_ELEMENT_THEORY":"SGP4","RA_OF_ASC_NODE":"104.6471","FILE":"3552761","TLE_LINE2":"2 48696  53.0555 104.6471 0001039  73.4226 286.6877 15.06385796 70302","LAUNCH_DATE":"2021-05-26","INCLINATION":"53.0555","BSTAR":"0.00010905000000","REF_FRAME":"TEME","MEAN_MOTION_DDOT":"0.0000000000000","TLE_LINE1":"1 48696U 21044BL  22243.70975944  .00001343  00000-0  10905-3 0  9991","RCS_SIZE":"LARGE","EPOCH":"2022-08-31T17:02:03.215616","EPHEMERIS_TYPE":"0","MEAN_MOTION":"15.06385796","CENTER_NAME":"EARTH","NORAD_CAT_ID":"48696"},{"SEMIMAJOR_AXIS":"6925.361","APOAPSIS":"548.166","PERIOD":"95.592","OBJECT_TYPE":"PAYLOAD","OBJECT_ID":"2021-044BM","ARG_OF_PERICENTER":"92.2563","ELEMENT_SET_NO":"999","ECCENTRICITY":"0.00013580","REV_AT_EPOCH":"7030","MEAN_ANOMALY":"267.8581","SITE":"AFETR","CLASSIFICATION_TYPE":"U","COUNTRY_CODE":"US","MEAN_MOTION_DOT":"0.00000409","TIME_SYSTEM":"UTC","PERIAPSIS":"546.285","OBJECT_NAME":"STARLINK-2715","DECAY_DATE":null,"LAUNCH_DATE":"2021-05-26","INCLINATION":"53.0545","TLE_LINE2":"2 48697  53.0545 104.4868 0001358  92.2563 267.8581 15.06396044 70308","BSTAR":"0.00004637800000","TLE_LINE1":"1 48697U 21044BM  22243.73924650  .00000409  00000-0  46378-4 0  9999","EPOCH":"2022-08-31T17:44:30.897600","RCS_SIZE":"LARGE","EPHEMERIS_TYPE":"0","REF_FRAME":"TEME","MEAN_MOTION_DDOT":"0.0000000000000","NORAD_CAT_ID":"48697","CENTER_NAME":"EARTH","MEAN_MOTION":"15.06396044","MEAN_ELEMENT_THEORY":"SGP4","GP_ID":"211423496","RA_OF_ASC_NODE":"104.4868","FILE":"3552761"},{"SEMIMAJOR_AXIS":"6936.029","APOAPSIS":"559.317","PERIOD":"95.813","OBJECT_TYPE":"PAYLOAD","ARG_OF_PERICENTER":"117.4924","OBJECT_ID":"2021-059A","MEAN_ANOMALY":"333.6149","REV_AT_EPOCH":"130","ELEMENT_SET_NO":"999","ECCENTRICITY":"0.00020520","SITE":"AFETR","CLASSIFICATION_TYPE":"U","MEAN_MOTION_DOT":"-0.00074613","COUNTRY_CODE":"US","DECAY_DATE":null,"PERIAPSIS":"556.470","OBJECT_NAME":"STARLINK-3003","TIME_SYSTEM":"UTC","TLE_LINE2":"2 48879  97.5154  12.2242 0002052 117.4924 333.6149 15.02921995  1305","LAUNCH_DATE":"2021-06-30","INCLINATION":"97.5154","BSTAR":"-0.00561480000000","MEAN_MOTION_DDOT":"0.0000000000000","REF_FRAME":"TEME","EPHEMERIS_TYPE":"0","RCS_SIZE":"LARGE","EPOCH":"2022-08-31T22:00:00.999936","TLE_LINE1":"1 48879U 21059A   22243.91667824 -.00074613  00000-0 -56148-2 0  9998","MEAN_MOTION":"15.02921995","NORAD_CAT_ID":"48879","CENTER_NAME":"EARTH","GP_ID":"211423016","MEAN_ELEMENT_THEORY":"SGP4","RA_OF_ASC_NODE":"12.2242","FILE":"3552761"}];
